INTELSAT 902 (IS-902)   
1 26900U 01039A   26198.18794513 -.00000296  00000+0  00000+0 0  9990
2 26900   6.1897  71.4135 0004198  43.9774 197.1804  1.00271924 90990
INTELSAT 904 (IS-904)   
1 27380U 02007A   26198.04766970 -.00000239  00000+0  00000+0 0  9997
2 27380   6.9927  68.8224 0005394  26.5589 185.1713  1.00270506 52061
DIRECTV 5 (TEMPO 1)     
1 27426U 02023A   26198.10358617 -.00000069  00000+0  00000+0 0  9999
2 27426   4.9524  74.9359 0003169  48.2394  98.9249  1.00271632 88428
INTELSAT 905 (IS-905)   
1 27438U 02027A   26197.74171178  .00000080  00000+0  00000+0 0  9992
2 27438   6.8257  69.4400 0003478  48.1392 306.7924  1.00271751 51658
GALAXY 3C (G-3C)        
1 27445U 02030A   26198.10653285 -.00000164  00000+0  00000+0 0  9993
2 27445   3.8094  77.5881 0001638  31.9289 128.9243  1.00270810 46798
INTELSAT 906 (IS-906)   
1 27513U 02041A   26198.19419796  .00000000  00000+0  00000+0 0  9995
2 27513   5.8757  72.5489 0003738  27.5280 329.0130  1.00273554 87327
GALAXY 13 (HORIZONS-1)  
1 27954U 03044A   26198.09560867  .00000122  00000+0  00000+0 0  9998
2 27954   1.4938  83.4785 0002119  33.2848  62.5569  1.00272135 46879
INTELSAT 10-02          
1 28358U 04022A   26198.12504312 -.00000021  00000+0  00000+0 0  9990
2 28358   0.0571 255.6497 0000260 338.7429 104.5661  1.00271862 80854
DIRECTV 8               
1 28659U 05019A   26198.10176617  .00000000  00000+0  00000+0 0  9998
2 28659   0.0216  63.9974 0003046  57.0054  91.5113  1.00270341 77375
GALAXY 28 (G-28)        
1 28702U 05022A   26198.17683507 -.00000212  00000+0  00000+0 0  9995
2 28702   3.3730  78.5620 0002509  30.6561 222.3439  1.00271554 52278
GALAXY 16 (G-16)        
1 29236U 06023A   26198.10575285 -.00000137  00000+0  00000+0 0  9992
2 29236   0.0250 154.2019 0002569 319.5717 120.2121  1.00271540 73276
DIRECTV 9S              
1 29494U 06043A   26198.10531950 -.00000125  00000+0  00000+0 0  9998
2 29494   2.4962  80.5416 0004982  32.0090 119.0881  1.00271431 51681
GALAXY 17 (G-17)        
1 31307U 07016B   26198.10852618 -.00000218  00000+0  00000+0 0  9995
2 31307   3.0454  79.5223 0003631  35.6221 133.8308  1.00271479 70107
INTELSAT 11 (IS-11)     
1 32253U 07044B   26198.10947382 -.00000205  00000+0  00000+0 0  9996
2 32253   3.6415  78.3054 0004284 100.0082 150.2233  0.99052717 68743
HORIZONS-2              
1 32388U 07063B   26198.11069286 -.00000265  00000+0  00000+0 0  9991
2 32388   2.6774  80.2593 0003546  17.0879 163.6182  1.00273179 68112
DIRECTV 11              
1 32729U 08013A   26198.10566617 -.00000135  00000+0  00000+0 0  9991
2 32729   0.0278 224.6809 0000215 326.7131  42.3827  1.00269209 45895
GALAXY 18 (G-18)        
1 32951U 08024A   26198.10098616  .00000015  00000+0  00000+0 0  9995
2 32951   0.0152  76.2840 0002854  38.6272  93.3454  1.00271010 46150
GALAXY 19 (G-19)        
1 33376U 08045A   26198.10609950 -.00000149  00000+0  00000+0 0  9998
2 33376   0.0514 243.9318 0002415 242.0844 110.1074  1.00270948 65208
FM-5                    
1 35493U 09034A   26197.82301248 -.00000210  00000+0  00000+0 0  9995
2 35493   0.0370 243.7641 0000713 111.2500 149.7458  1.00271164 46947
INTELSAT 14 (IS-14)     
1 36097U 09064A   26198.18794513 -.00000284  00000+0  00000+0 0  9991
2 36097   0.0164   2.1479 0002321 116.0169 199.4922  1.00272553 60909
INTELSAT 15 (IS-15)     
1 36106U 09067A   26198.14220321  .00000000  00000+0  00000+0 0  9997
2 36106   0.0199  45.2299 0002236  70.9354 315.1458  1.00270438 41523
DIRECTV 12              
1 36131U 09075A   26198.10497285 -.00000114  00000+0  00000+0 0  9992
2 36131   0.0102 144.1304 0000301  79.3833   6.4727  1.00271847 46852
INTELSAT 16 (IS-16)     
1 36397U 10006A   26198.11025953 -.00000255  00000+0  00000+0 0  9998
2 36397   0.0151  57.2719 0002315  78.5677 122.5713  1.00271995 59952
XM-5                    
1 37185U 10053A   26198.10254617 -.00000033  00000+0  00000+0 0  9990
2 37185   0.0599 264.0577 0001536 322.6071 349.9717  1.00273328 57789
INTELSAT 17 (IS-17)     
1 37238U 10065B   26198.13838985 -.00000012  00000+0  00000+0 0  9998
2 37238   0.0049  93.6168 0002561  33.4233 283.7311  1.00272159 53542
INTELSAT 28 (IS-28)     
1 37392U 11016A   26198.18239295 -.00000236  00000+0  00000+0 0  9998
2 37392   1.8819  82.2583 0003762  40.8011 205.8951  1.00271966 53586
INTELSAT 18 (IS-18)     
1 37834U 11056A   26198.16100994  .00000043  00000+0  00000+0 0  9999
2 37834   0.0301 236.9189 0001802 251.3969  44.6195  1.00272226 54117
INTELSAT 22 (IS-22)     
1 38098U 12011A   26198.06830854 -.00000069  00000+0  00000+0 0  9997
2 38098   0.0169  51.2847 0001842  75.2995 264.9948  1.00271909  7485
INTELSAT 19 (IS-19)     
1 38356U 12030A   26198.15823661 -.00000067  00000+0  00000+0 0  9991
2 38356   0.0186  41.0723 0002866  74.6663  42.1889  1.00271760 50756
INTELSAT 20 (IS-20)     
1 38740U 12043A   26198.06761521 -.00000034  00000+0  00000+0 0  9992
2 38740   0.0110  61.8578 0001260 119.1700 206.7087  1.00270598 51041
INTELSAT 21 (IS-21)     
1 38749U 12045A   26198.11382779 -.00000295  00000+0  00000+0 0  9992
2 38749   0.0481 246.2144 0001615 241.0925 150.6068  1.00272417 50820
